{"version":"1.0","generated":"2026-03-06T20:15:06.452Z","count":1500,"satellites":[{"id":22724,"name":"INSAT 2B","orbitClass":"geo","notable":true,"line1":"1 22724U 93048B   26046.47910360  .00000115  00000-0  00000+0 0  9995","line2":"2 22724  14.4133   3.5123 0017514 232.3013 132.1883  0.99967666119365"},{"id":22796,"name":"ACTS","orbitClass":"geo","notable":false,"line1":"1 22796U 93058B   26046.38378164 -.00000099  00000-0  00000+0 0  9997","line2":"2 22796  14.5785 356.5085 0049942  76.3411 104.8994  1.00271757125687"},{"id":22911,"name":"SOLIDARIDAD 1","orbitClass":"geo","notable":false,"line1":"1 22911U 93073A   26046.44165348 -.00000091  00000-0  00000+0 0  9990","line2":"2 22911  14.3440   3.3028 0009714 266.6022 287.3119  1.00278928116640"},{"id":22931,"name":"THAICOM 1","orbitClass":"geo","notable":false,"line1":"1 22931U 93078B   26044.28899292 -.00000284  00000-0  00000-0 0  9994","line2":"2 22931  11.7034  35.7687 0006924 228.5969 137.8588  0.99186363 44949"},{"id":22963,"name":"GALS 1","orbitClass":"geo","notable":false,"line1":"1 22963U 94002A   26045.97673911  .00000135  00000-0  00000-0 0  9996","line2":"2 22963  14.5435 354.7842 0011530 242.3436 293.7578  1.00291191117489"},{"id":23176,"name":"BS-3N","orbitClass":"geo","notable":false,"line1":"1 23176U 94040B   26046.48222360  .00000070  00000-0  00000+0 0  9997","line2":"2 23176  13.2389  20.8473 0004310 342.4174  22.0818  0.99148772101105"},{"id":23185,"name":"APSTAR 1","orbitClass":"geo","notable":false,"line1":"1 23185U 94043A   26046.24995578 -.00000259  00000-0  00000+0 0  9992","line2":"2 23185  13.2007  18.7766 0003584 347.8288 202.6607  0.99380254 43863"},{"id":23200,"name":"TURKSAT 1B","orbitClass":"geo","notable":false,"line1":"1 23200U 94049B   26046.55046171  .00000038  00000-0  00000+0 0  9990","line2":"2 23200  13.5854  17.4162 0011642 109.5421  76.6858  0.99046465114090"},{"id":23319,"name":"EXPRESS 1","orbitClass":"geo","notable":false,"line1":"1 23319U 94067A   26046.21182227 -.00000328  00000-0  00000+0 0  9990","line2":"2 23319  14.4850   2.9310 0006952 266.4262  92.9372  0.99832570114356"},{"id":23327,"name":"ELEKTRO (GOMS)","orbitClass":"geo","notable":false,"line1":"1 23327U 94069A   26046.35720101 -.00000083  00000-0  00000+0 0  9993","line2":"2 23327  14.5200 350.2304 0009197 266.9885  89.6416  1.00288266114641"},{"id":23415,"name":"DFH-3 1","orbitClass":"geo","notable":false,"line1":"1 23415U 94080A   26046.34303626 -.00000292  00000-0  00000+0 0  9994","line2":"2 23415  13.7478 345.4699 0096479  18.9172 348.2062  1.00969967134448"},{"id":23426,"name":"LUCH","orbitClass":"geo","notable":false,"line1":"1 23426U 94082A   26045.74377170 -.00000294  00000-0  00000+0 0  9998","line2":"2 23426  14.7565 355.5451 0005656 227.6278 132.3606  1.00192871114030"},{"id":23522,"name":"HIMAWARI 5 (GMS 5)","orbitClass":"geo","notable":true,"line1":"1 23522U 95011B   26046.48023025  .00000094  00000-0  00000+0 0  9994","line2":"2 23522  14.2495   5.3205 0005052 170.4512 198.9908  0.99401605112392"},{"id":23537,"name":"HOT BIRD 1","orbitClass":"geo","notable":false,"line1":"1 23537U 95016B   26046.30216318 -.00000315  00000-0  00000+0 0  9992","line2":"2 23537  12.9383  23.5999 0001877 356.0810  16.4410  0.99318836112503"},{"id":23639,"name":"KOREASAT 1","orbitClass":"geo","notable":false,"line1":"1 23639U 95041A   26046.44339672  .00000084  00000-0  00000+0 0  9999","line2":"2 23639  14.7031 359.5410 0005926 297.2063 238.0301  0.99665033111314"},{"id":23651,"name":"NSTAR A","orbitClass":"geo","notable":false,"line1":"1 23651U 95044A   26046.23740576 -.00000233  00000-0  00000+0 0  9999","line2":"2 23651  13.0630  22.2201 0022014 356.5358 196.6431  0.99131284110701"},{"id":23723,"name":"AMOS 5I (ASIASAT 2)","orbitClass":"geo","notable":false,"line1":"1 23723U 95064A   26046.48439028  .00000041  00000-0  00000+0 0  9991","line2":"2 23723  11.0567  42.6858 0009944 305.3899  48.3124  0.99302080110112"},{"id":23731,"name":"INSAT 2C","orbitClass":"geo","notable":true,"line1":"1 23731U 95067B   26046.44599675  .00000029  00000-0  00000+0 0  9990","line2":"2 23731  14.2346   9.1800 0003517 356.7175 183.2307  0.99777500110196"},{"id":23765,"name":"AFRICASAT 1 (MEASAT 1)","orbitClass":"geo","notable":false,"line1":"1 23765U 96002B   26046.08281962  .00000008  00000-0  00000-0 0  9992","line2":"2 23765  12.2446  30.2276 0005760 304.3064  50.2099  0.99062499109634"},{"id":23768,"name":"ABS 1A (KOREASAT 2)","orbitClass":"geo","notable":false,"line1":"1 23768U 96003A   26046.15002865  .00000018  00000-0  00000+0 0  9997","line2":"2 23768  12.4393  26.4594 0001418 251.1047 110.7600  0.99800374109964"},{"id":23779,"name":"PAKSAT 1 (ANATOLIA 1)","orbitClass":"geo","notable":false,"line1":"1 23779U 96006A   26046.08725209  .00000119  00000-0  00000-0 0  9991","line2":"2 23779  10.6077  46.9433 0007003 208.4882 334.3322  0.99588731109631"},{"id":24315,"name":"AMC-1 (GE-1)","orbitClass":"geo","notable":false,"line1":"1 24315U 96054A   26046.19119550  .00000093  00000-0  00000+0 0  9999","line2":"2 24315   8.8298  60.4248 0010839 232.1397 318.6157  0.99505608 45028"},{"id":24653,"name":"MEASAT 2","orbitClass":"geo","notable":false,"line1":"1 24653U 96063B   26046.55320389 -.00000303  00000-0  00000+0 0  9993","line2":"2 24653  12.0755  29.9027 0005587 215.9555 215.7149  0.99655412107073"},{"id":24713,"name":"AMC-2 (GE-2)","orbitClass":"geo","notable":false,"line1":"1 24713U 97002A   26046.15236865  .00000037  00000-0  00000+0 0  9998","line2":"2 24713  10.5638  46.2903 0003186 212.4171 142.2169  0.99471792106204"},{"id":24769,"name":"BSAT-1A","orbitClass":"geo","notable":false,"line1":"1 24769U 97016B   26046.31963612 -.00000247  00000-0  00000+0 0  9993","line2":"2 24769  10.9211  41.9380 0006082 268.0196 275.9557  0.99122535 45596"},{"id":24786,"name":"GOES 10","orbitClass":"geo","notable":true,"line1":"1 24786U 97019A   26046.49613705 -.00000241  00000-0  00000+0 0  9993","line2":"2 24786  12.9826  21.9656 0031359 237.8412 230.1772  0.99128312104860"},{"id":24936,"name":"AMC-3 (GE-3)","orbitClass":"geo","notable":false,"line1":"1 24936U 97050A   26046.45492346 -.00000257  00000-0  00000+0 0  9994","line2":"2 24936   7.8460  65.4737 0003150 261.0639 270.6805  1.00273398 51219"},{"id":25045,"name":"KUPON","orbitClass":"geo","notable":false,"line1":"1 25045U 97070A   26046.33378353 -.00000241  00000-0  00000+0 0  9999","line2":"2 25045  14.5616 355.5572 0005477 301.7612  58.2237  1.00292885103428"},{"id":25050,"name":"INDOSTAR 1","orbitClass":"geo","notable":false,"line1":"1 25050U 97071B   26043.55142009  .00000135  00000-0  00000+0 0  9995","line2":"2 25050  12.8140  20.9600 0005169 289.2118  62.2417  1.00257887103542"},{"id":25312,"name":"BSAT-1B","orbitClass":"geo","notable":false,"line1":"1 25312U 98024B   26046.50677326 -.00000264  00000-0  00000+0 0  9992","line2":"2 25312  11.2388  45.6881 0006502 253.0501 158.1765  0.99120964 44954"},{"id":25515,"name":"AFRISTAR","orbitClass":"geo","notable":false,"line1":"1 25515U 98063A   26046.29112265 -.00000153  00000-0  00000+0 0  9999","line2":"2 25515   9.9606  50.8837 0003906 236.8135 144.0161  0.99010251 99357"},{"id":25516,"name":"AMC-5 (GE-5)","orbitClass":"geo","notable":false,"line1":"1 25516U 98063B   26046.36078830 -.00000309  00000-0  00000+0 0  9990","line2":"2 25516  11.2020  41.2184 0002912 312.4982  66.4499  0.99336487 99623"},{"id":25546,"name":"BONUM 1","orbitClass":"geo","notable":false,"line1":"1 25546U 98068A   26046.28989390  .00000060  00000-0  00000+0 0  9994","line2":"2 25546  10.6340  47.5043 0003553 317.6207 127.6598  0.99035757 99330"},{"id":25666,"name":"INSAT 2E (APR-1)","orbitClass":"geo","notable":true,"line1":"1 25666U 99016A   26046.43268639 -.00000185  00000-0  00000+0 0  9993","line2":"2 25666  11.1183  41.3294 0010948 288.0388 257.3250  0.99653250 50226"},{"id":25880,"name":"TELKOM 1","orbitClass":"geo","notable":false,"line1":"1 25880U 99042A   26046.48612362 -.00000178  00000-0  00000+0 0  9993","line2":"2 25880   7.3775  67.7066 0017333 254.8556  83.0278  1.00252659 97169"},{"id":25896,"name":"YAMAL 101","orbitClass":"geo","notable":false,"line1":"1 25896U 99047A   26046.11150641 -.00000135  00000-0  00000-0 0  9996","line2":"2 25896  14.5959   0.4256 0086365  59.7742 118.7174  0.99873632 96588"},{"id":25954,"name":"AMC-4 (GE-4)","orbitClass":"geo","notable":false,"line1":"1 25954U 99060A   26046.19214884  .00000064  00000-0  00000+0 0  9993","line2":"2 25954   4.9388  75.3344 0005684 209.2474 331.5976  0.99132731 42203"},{"id":26089,"name":"GARUDA 1","orbitClass":"geo","notable":false,"line1":"1 26089U 00011A   26046.45449014 -.00000213  00000-0  00000+0 0  9992","line2":"2 26089   9.3552  65.3772 0005864 234.9190 294.8528  0.99908214 40444"},{"id":26107,"name":"ASIASTAR","orbitClass":"geo","notable":false,"line1":"1 26107U 00016A   26046.48993697 -.00000329  00000-0  00000+0 0  9990","line2":"2 26107   8.8453  59.4464 0003878 272.5839  94.8473  1.00272783 94705"},{"id":26108,"name":"INSAT 3B","orbitClass":"geo","notable":true,"line1":"1 26108U 00016B   26046.42008330 -.00000274  00000-0  00000+0 0  9995","line2":"2 26108  10.6070  46.5910 0008435 239.8474 122.4569  0.99657903 50221"},{"id":26352,"name":"GOES 11","orbitClass":"geo","notable":true,"line1":"1 26352U 00022A   26046.28725199 -.00000175  00000-0  00000+0 0  9996","line2":"2 26352  11.5438  47.6120 0006365 249.1611 311.6906  0.99044682 51268"},{"id":26495,"name":"AMC-7 (GE-7)","orbitClass":"geo","notable":false,"line1":"1 26495U 00054B   26046.42953001 -.00000255  00000-0  00000+0 0  9999","line2":"2 26495   6.6055  71.7289 0004351 146.9814 241.5691  0.99137128 92762"},{"id":26559,"name":"NSAT 110","orbitClass":"geo","notable":false,"line1":"1 26559U 00060A   26046.32752284 -.00000130  00000-0  00000+0 0  9998","line2":"2 26559   6.4844  71.6525 0003080 296.8547 259.9489  0.99183123 92613"}]}